24903,IRIDIUM 26,1997,100.21,-1.0,-,86.4,Inactive,0,LEO,USA,USA,Unknown,Unknown,Unknown,1 24903U 97043A   25083.44825056  .00001113  00000+0  36889-3 0  9995,2 24903  86.3989 146.2177 0002284  88.5290 271.6169 14.37047611444579,14.37047611,0.0002284,LEO
24907,IRIDIUM 22,1997,100.29,-1.0,-,86.4,Inactive,0,LEO,USA,USA,Unknown,Unknown,Unknown,1 24907U 97043E   25083.44777732  .00001004  00000+0  33994-3 0  9999,2 24907  86.4001 149.6800 0002210  94.2696 265.8753 14.35872477444615,14.35872477,0.000221,LEO
24925,DUMMY MASS 1,1997,96.85,-1.0,-,86.34,Inactive,0,LEO,PRC,China,Unknown,Unknown,Unknown,1 24925U 97048A   25083.28712411  .00001402  00000+0  15390-3 0  9991,2 24925  86.3416 174.5589 0009032  88.5930 271.6329 14.86883609492512,14.86883609,0.0009032,LEO
24926,DUMMY MASS 2,1997,96.86,-1.0,-,86.34,Inactive,0,LEO,PRC,China,Unknown,Unknown,Unknown,1 24926U 97048B   25083.50439742  .00001408  00000+0  15544-3 0  9997,2 24926  86.3417 176.0480 0009811  96.7603 263.4739 14.86637204492561,14.86637204,0.0009811,LEO
24944,IRIDIUM 29,1997,100.25,-1.0,-,86.4,Inactive,0,LEO,Kazakhstan,USA,Unknown,Unknown,Unknown,1 24944U 97051A   25083.36106322  .00001360  00000+0  45845-3 0  9994,2 24944  86.4035 179.4454 0002132 100.9725 259.1712 14.36365500441095,14.363655,0.0002132,LEO
24946,IRIDIUM 33,1997,100.36,-1.0,-,86.4,Inactive,0,LEO,Kazakhstan,USA,Unknown,Unknown,Unknown,1 24946U 97051C   25083.52953373  .00000956  00000+0  33013-3 0  9994,2 24946  86.3949 178.6289 0007757  10.7950 349.3411 14.34823619440616,14.34823619,0.0007757,LEO
24948,IRIDIUM 28,1997,100.19,-1.0,-,86.4,Inactive,0,LEO,Kazakhstan,USA,Unknown,Unknown,Unknown,1 24948U 97051E   25083.52859515  .00001312  00000+0  43377-3 0  9990,2 24948  86.4041 176.9427 0002201  83.4908 276.6540 14.37296265441751,14.37296265,0.0002201,LEO
24967,IRIDIUM 36,1997,100.17,-1.0,-,86.4,Inactive,0,LEO,USA,USA,Unknown,Unknown,Unknown,1 24967U 97056C   25083.57436502  .00001460  00000+0  48138-3 0  9992,2 24967  86.4017 208.4971 0001851  91.0844 269.0566 14.37501066440069,14.37501066,0.0001851,LEO
